OPTICUBE 04             
1 41851U 16067D   24284.43088714  .00011470  00000+0  82525-3 0  9991
2 41851  98.0859  94.3868 0017915  31.9348 328.2958 15.04274442432558
AEROCUBE 8D             
1 41852U 16067E   24283.73378416  .00015437  00000+0  93021-3 0  9995
2 41852  98.1139  99.4683 0005500  84.9723 275.2133 15.10872219432676
AEROCUBE 8C             
1 41853U 16067F   24284.47808525  .00018595  00000+0  11181-2 0  9991
2 41853  98.0966  98.5561 0007475  17.3678 342.7805 15.10894261432779
PROMETHEUS 2-1          
1 41854U 16067G   24284.04279250  .00044460  00000+0  18171-2 0  9998
2 41854  98.1007 107.6115 0010995  24.9931 335.1835 15.24173025433189
PROMETHEUS 2-3          
1 41855U 16067H   24283.78029423  .00041209  00000+0  16914-2 0  9995
2 41855  98.0943 106.7051 0009415  36.5050 323.6825 15.24063984433142
CORVUS BC2              
1 42846U 17042X   24284.04821476  .00011664  00000+0  95461-3 0  9995
2 42846  97.3761 102.8927 0009027  44.9805 315.2149 14.99434500394646
CORVUS BC1              
1 42847U 17042Y   24284.06398180  .00011273  00000+0  91851-3 0  9994
2 42847  97.3787 103.3270 0009713  38.7624 321.4295 14.99608035394663
MIRATA                  
1 43015U 17073C   24283.67812335  .00048319  00000+0  18695-2 0  9990
2 43015  97.5743 167.5888 0145405 226.8136 132.0874 15.16697087373626
MAKERSAT 0              
1 43016U 17073D   24283.59954462  .00029516  00000+0  15278-2 0  9992
2 43016  97.5544 159.6092 0177274 254.4397 103.7198 15.03511150373064
GOMX-4B                 
1 43196U 18015E   24282.58847578  .03976909  26111-5  79291-3 0  9998
2 43196  97.5784 107.6879 0008923 259.8443 100.1844 16.31424227373429
SIRION PATHFINDER-2     
1 43759U 18099B   24283.88077946  .00014333  00000+0  10106-2 0  9996
2 43759  97.5160 336.8750 0008931 253.2177 106.8070 15.05056061319743
CORVUS BC4              
1 43767U 18099K   24283.70788425  .00010870  00000+0  78801-3 0  9996
2 43767  97.4973 333.5491 0009113 319.6938  40.3612 15.04079061319595
MOVE-II                 
1 43780U 18099Y   24283.67768118  .00059223  00000+0  23554-2 0  9993
2 43780  97.5058 346.1372 0004351 292.4269  67.6507 15.25052644320315
SPACEBEE-7              
1 43816U 18099BL  24283.73647662  .00037034  00000+0  18360-2 0  9995
2 43816  97.5341 346.3743 0008121 246.3082 113.7300 15.17609827319745
SPACEBEE-6              
1 43818U 18099BN  24284.47327090  .00189764  00000+0  46059-2 0  9993
2 43818  97.5245 355.0927 0007221 235.0788 124.9780 15.40257772320538
SHIELDS 1               
1 43850U 18104B   24284.19606582  .00042114  00000+0  93685-3 0  9996
2 43850  85.0244 204.7700 0010456  20.8410 339.3268 15.43413654323868
SONATE                  
1 44400U 19038Q   24283.99376060  .00051880  00000+0  11769-2 0  9999
2 44400  97.7169 283.8749 0016361  64.0441 296.2489 15.42758291291725
LUCKY-7                 
1 44406U 19038W   24283.77870733  .00156391  00000+0  16621-2 0  9992
2 44406  97.6997 290.0826 0010968  56.0654 304.1645 15.63463337292135
DUCHIFAT-3              
1 44854U 19089C   24284.47394514  .00037230  00000+0  15377-2 0  9998
2 44854  36.9540  66.0917 0008661 357.4420   2.6284 15.23094838265748
M2 PATHFINDER           
1 45727U 20037E   24284.49199869  .00009342  00000+0  77958-3 0  9998
2 45727  97.7813 100.4820 0011722 100.6285 259.6258 14.98737351233207
NETSAT-4                
1 46504U 20068U   24283.85207142  .00027178  00000+0  12870-2 0  9997
2 46504  97.8180 244.4543 0007960 346.0610  14.0402 15.19280551221555
NETSAT-3                
1 46505U 20068V   24284.14484685  .00026842  00000+0  12924-2 0  9997
2 46505  97.8165 244.1191 0007906 357.4408   2.6783 15.18706243221584
NETSAT-1                
1 46506U 20068W   24284.14583645  .00024019  00000+0  12414-2 0  9992
2 46506  97.8187 243.2711 0007588   9.1800 350.9569 15.16250511221525
NETSAT-2                
1 46507U 20068X   24283.87194910  .00023972  00000+0  11367-2 0  9998
2 46507  97.8167 244.0745 0006990  19.0960 341.0534 15.19269104221505
WILDTRACKCUBE-SIMBA     
1 47941U 21022K   24284.48145662  .00031362  00000+0  11683-2 0  9993
2 47941  97.4426 180.5177 0016603  96.6254 263.6875 15.27271004196020
GRBALPHA                
1 47959U 21022AD  24284.50042923  .00052451  00000+0  15423-2 0  9999
2 47959  97.4421 183.3587 0015399  88.0981 272.2025 15.34805097195039
BEESAT-8                
1 48085U 21022AP  24284.47350692  .00086342  00000+0  17879-2 0  9994
2 48085  97.4667 188.5416 0013472  77.4201 282.8554 15.45358988195596
LEDSAT                  
1 49069U 21073D   24284.46226951  .00066253  00000+0  21215-2 0  9990
2 49069  97.4248 355.2426 0016095 232.3721 127.6060 15.32016410174054
ROBUSTA-1F (MTCUBE 2)   
1 53109U 22080E   24283.95403568 -.00000003  00000+0  00000+0 0  9991
2 53109  70.1212 152.2243 0008243  63.1528 296.9974  6.42584000 52534
SITRO-AIS 5 (KATYS)     
1 57176U 23091L   24284.53667301  .00020817  00000+0  12130-2 0  9998
2 57176  97.5988 335.8813 0018207  88.2809 272.0506 15.11880177 70905
SITRO-AIS 6 (CHIRKIN)   
1 57192U 23091AC  24284.18707422  .00024506  00000+0  14260-2 0  9991
2 57192  97.5979 335.5642 0017909  89.1738 271.1544 15.11899415 70850
SITRO-AIS 8 (ANOKHIN)   
1 57193U 23091AD  24284.18918889  .00026674  00000+0  15269-2 0  9991
2 57193  97.5979 335.7046 0017562  89.9919 270.3324 15.12476534 70867
SITRO-AIS 7 (FARTUSHNIY)
1 57194U 23091AE  24284.46109396  .00019317  00000+0  11276-2 0  9998
2 57194  97.5983 335.8067 0017874  88.9529 271.3749 15.11836816 70896
SITRO-AIS 10 (BURDAEV)  
1 57199U 23091AK  24284.54085828  .00025149  00000+0  13582-2 0  9997
2 57199  97.5997 337.3212 0012902  78.2642 282.0036 15.14633332 70990
SITRO-AIS 9 (SHCHUKIN)  
1 57201U 23091AM  24284.47502547  .00024052  00000+0  13009-2 0  9991
2 57201  97.5993 337.2244 0012890  78.3539 281.9138 15.14590452 70981
SITRO-AIS 12 (SMIRENNIY)
1 57204U 23091AQ  24284.48879584  .00024537  00000+0  13196-2 0  9998
2 57204  97.6003 337.4165 0012604  73.0027 287.2585 15.14791848 70996
SITRO-AIS 11 (SHEFFER)  
1 57208U 23091AU  24284.46663378  .00024058  00000+0  12894-2 0  9994
2 57208  97.5997 337.4320 0012483  73.3447 286.9154 15.14918453 70999
ROBUSTA-1E (ENSO)       
1 58470U 23185J   24284.47256461  .00038523  00000+0  13152-2 0  9992
2 58470  97.4123 350.3714 0010525 226.1995 133.8375 15.30162473 47724
SITRO-AIS 29            
1 59052U 24039B   24284.52406905  .00056182  00000+0  15018-2 0  9998
2 59052  97.4025 246.3256 0016396 150.2693 209.9487 15.37746930 34257
SITRO-AIS 30            
1 59053U 24039C   24284.53414682  .00055921  00000+0  15083-2 0  9993
2 59053  97.4025 246.3064 0016585 151.6306 208.5845 15.37467243 34240
SITRO-AIS 31            
1 59054U 24039D   24284.51348013  .00054627  00000+0  14615-2 0  9998
2 59054  97.4026 246.3349 0016268 151.2476 208.9669 15.37729352 34262
SITRO-AIS 33            
1 59055U 24039E   24284.17077919  .00081028  00000+0  21548-2 0  9993
2 59055  97.4031 246.0401 0015975 152.4247 207.7848 15.37801800 34207
SITRO-AIS 35            
1 59056U 24039F   24284.16582199  .00080954  00000+0  21521-2 0  9992
2 59056  97.4029 246.0425 0015857 152.4462 207.7626 15.37814424 34209
SITRO-AIS 32            
1 59057U 24039G   24284.18330928  .00081037  00000+0  21695-2 0  9991
2 59057  97.4033 246.0230 0016003 152.9876 207.2205 15.37594390 34202
SITRO-AIS 34            
1 59058U 24039H   24284.17096137  .00080420  00000+0  21371-2 0  9998
2 59058  97.4031 246.0417 0015816 152.3468 207.8621 15.37829194 34201
SITRO-AIS 36            
1 59059U 24039J   24284.15488608  .00079812  00000+0  21139-2 0  9990
2 59059  97.4030 246.0579 0015774 152.6100 207.5980 15.37935021 34201
SITRO-AIS 49            
1 59060U 24039K   24284.16161824  .00072464  00000+0  19335-2 0  9992
2 59060  97.4033 246.0495 0015809 151.9279 208.2822 15.37738815 34206
SITRO-AIS 50            
1 59061U 24039L   24284.13594537  .00079061  00000+0  20802-2 0  9992
2 59061  97.4027 246.0811 0015657 151.6808 208.5291 15.38144420 34205
SITRO-AIS 51            
1 59062U 24039M   24284.39538685  .00089157  00000+0  23395-2 0  9990
2 59062  97.4026 246.3437 0015628 151.2265 208.9845 15.38185112 34249
SITRO-AIS 52            
1 59063U 24039N   24284.51098589  .00053513  00000+0  14052-2 0  9996
2 59063  97.4029 246.4973 0015431 150.6265 209.5850 15.38325064 34261
SITRO-AIS 25            
1 59066U 24039R   24284.12902604  .00017051  00000+0  15646-2 0  9995
2 59066  95.3917 175.2661 0164131 307.8166  50.8291 14.85114141 33154
SITRO-AIS 26            
1 59067U 24039S   24284.13269311  .00015440  00000+0  14208-2 0  9991
2 59067  95.3917 175.2619 0164234 307.8549  50.7906 14.85010842 33152
SITRO-AIS 27            
1 59068U 24039T   24284.51282118  .00014669  00000+0  13434-2 0  9996
2 59068  95.3919 175.5637 0163637 306.2482  52.3709 14.85264677 33216
SITRO-AIS 28            
1 59071U 24039U   24284.16993188  .00017350  00000+0  15865-2 0  9997
2 59071  95.3918 175.3428 0163525 307.3898  51.2528 14.85308674 33161
GRBBETA                 
1 60237U 24128C   24284.14270161  .00014757  00000+0  12360-2 0  9994
2 60237  61.9935 202.3598 0020248 349.8163  10.2513 14.98502236 13817
OOV-CUBE (TUBSAT-30)    
1 60240U 24128F   24284.18741284  .00010496  00000+0  90865-3 0  9994
2 60240  61.9970 202.6091 0018428 342.6763  17.3694 14.97479762 13820
ROBUSTA-3A (MEDITERRAN*)
1 60243U 24128J   24283.86144882  .00020798  00000+0  17512-2 0  9995
2 60243  61.9899 203.7257 0018697 332.5534  27.4566 14.98135056 13771
